{
  "type": "FeatureCollection",
  "features": [
    {
      "type": "Feature",
      "properties": {
        "norad_id": 65943,
        "name": "E-KAGAKU-1",
        "group": "stations",
        "lat": -21.157608225583456,
        "lon": 20.91642337861723,
        "alt_km": 395.38901809421805,
        "timestamp": "2025-12-04T03:47:53.355560+00:00",
        "meta_object_name": "E-KAGAKU-1",
        "meta_object_id": "1998-067XQ",
        "meta_epoch": "2025-12-02T21:39:34.941600",
        "meta_mean_motion": 15.57714998,
        "meta_eccentricity": 0.00035202,
        "meta_inclination": 51.6296,
        "meta_ra_of_asc_node": 189.358,
        "meta_arg_of_pericenter": 147.4331,
        "meta_mean_anomaly": 212.6879,
        "meta_ephemeris_type": 0,
        "meta_classification_type": "U",
        "meta_norad_cat_id": 65943,
        "meta_element_set_no": 999,
        "meta_rev_at_epoch": 832,
        "meta_bstar": 0.00096701912,
        "meta_mean_motion_dot": 0.00073283,
        "meta_mean_motion_ddot": 0,
        "tle_line1": "1 65943U 98067XQ  25336.90248775  .00073283  00000+0  96702-3 0  9997",
        "tle_line2": "2 65943  51.6296 189.3580 0003520 147.4331 212.6879 15.57714998  8329"
      },
      "geometry": {
        "type": "Point",
        "coordinates": [
          20.91642337861723,
          -21.157608225583456
        ]
      }
    },
    {
      "type": "Feature",
      "properties": {
        "norad_id": 66052,
        "name": "HRC MONOBLOCK CAMERA",
        "group": "stations",
        "lat": -11.96705563600826,
        "lon": 174.59908457577947,
        "alt_km": 412.18258959391096,
        "timestamp": "2025-12-04T03:47:53.355570+00:00",
        "meta_object_name": "HRC MONOBLOCK CAMERA",
        "meta_object_id": "1998-067XR",
        "meta_epoch": "2025-12-03T07:47:25.348416",
        "meta_mean_motion": 15.53212477,
        "meta_eccentricity": 0.0004389,
        "meta_inclination": 51.6293,
        "meta_ra_of_asc_node": 188.4201,
        "meta_arg_of_pericenter": 146.7187,
        "meta_mean_anomaly": 213.408,
        "meta_ephemeris_type": 0,
        "meta_classification_type": "U",
        "meta_norad_cat_id": 66052,
        "meta_element_set_no": 999,
        "meta_rev_at_epoch": 737,
        "meta_bstar": 0.0006297,
        "meta_mean_motion_dot": 0.00040058,
        "meta_mean_motion_ddot": 0,
        "tle_line1": "1 66052U 98067XR  25337.32459894  .00040058  00000+0  62970-3 0  9996",
        "tle_line2": "2 66052  51.6293 188.4201 0004389 146.7187 213.4080 15.53212477  7371"
      },
      "geometry": {
        "type": "Point",
        "coordinates": [
          174.59908457577947,
          -11.96705563600826
        ]
      }
    },
    {
      "type": "Feature",
      "properties": {
        "norad_id": 66174,
        "name": "HTV-X1",
        "group": "stations",
        "lat": 8.171781465327571,
        "lon": -168.50489563886632,
        "alt_km": 420.81886531809596,
        "timestamp": "2025-12-04T03:47:53.355583+00:00",
        "meta_object_name": "HTV-X1",
        "meta_object_id": "2025-241A",
        "meta_epoch": "2025-12-03T01:26:08.635488",
        "meta_mean_motion": 15.49262423,
        "meta_eccentricity": 0.00036204,
        "meta_inclination": 51.6309,
        "meta_ra_of_asc_node": 190.4017,
        "meta_arg_of_pericenter": 198.708,
        "meta_mean_anomaly": 161.3776,
        "meta_ephemeris_type": 0,
        "meta_classification_type": "U",
        "meta_norad_cat_id": 66174,
        "meta_element_set_no": 999,
        "meta_rev_at_epoch": 51,
        "meta_bstar": 0.00021764811,
        "meta_mean_motion_dot": 0.0001167,
        "meta_mean_motion_ddot": 0,
        "tle_line1": "1 66174U 25241A   25337.05982217  .00011670  00000+0  21765-3 0  9990",
        "tle_line2": "2 66174  51.6309 190.4017 0003620 198.7080 161.3776 15.49262423   511"
      },
      "geometry": {
        "type": "Point",
        "coordinates": [
          -168.50489563886632,
          8.171781465327571
        ]
      }
    },
    {
      "type": "Feature",
      "properties": {
        "norad_id": 66515,
        "name": "SZ-21 MODULE",
        "group": "stations",
        "lat": -22.0554476206841,
        "lon": 41.068508992468956,
        "alt_km": 385.8478776713682,
        "timestamp": "2025-12-04T03:47:53.355594+00:00",
        "meta_object_name": "SZ-21 MODULE",
        "meta_object_id": "2025-246C",
        "meta_epoch": "2025-12-03T07:59:41.917920",
        "meta_mean_motion": 15.61790567,
        "meta_eccentricity": 0.0005832,
        "meta_inclination": 41.4771,
        "meta_ra_of_asc_node": 73.3983,
        "meta_arg_of_pericenter": 205.8085,
        "meta_mean_anomaly": 154.2464,
        "meta_ephemeris_type": 0,
        "meta_classification_type": "U",
        "meta_norad_cat_id": 66515,
        "meta_element_set_no": 999,
        "meta_rev_at_epoch": 297,
        "meta_bstar": 0.00036812,
        "meta_mean_motion_dot": 0.0003262,
        "meta_mean_motion_ddot": 0,
        "tle_line1": "1 66515U 25246C   25337.33312405  .00032620  00000+0  36812-3 0  9998",
        "tle_line2": "2 66515  41.4771  73.3983 0005832 205.8085 154.2464 15.61790567  2979"
      },
      "geometry": {
        "type": "Point",
        "coordinates": [
          41.068508992468956,
          -22.0554476206841
        ]
      }
    },
    {
      "type": "Feature",
      "properties": {
        "norad_id": 66645,
        "name": "SHENZHOU-22",
        "group": "stations",
        "lat": 14.021909917475652,
        "lon": -127.64499116685805,
        "alt_km": 395.86657332179493,
        "timestamp": "2025-12-04T03:47:53.355604+00:00",
        "meta_object_name": "SHENZHOU-22",
        "meta_object_id": "2025-272A",
        "meta_epoch": "2025-12-03T08:40:01.753824",
        "meta_mean_motion": 15.58580261,
        "meta_eccentricity": 0.00100709,
        "meta_inclination": 41.4677,
        "meta_ra_of_asc_node": 73.6192,
        "meta_arg_of_pericenter": 319.5464,
        "meta_mean_anomaly": 40.4624,
        "meta_ephemeris_type": 0,
        "meta_classification_type": "U",
        "meta_norad_cat_id": 66645,
        "meta_element_set_no": 999,
        "meta_rev_at_epoch": 26257,
        "meta_bstar": 0.00034171532,
        "meta_mean_motion_dot": 0.00026743,
        "meta_mean_motion_ddot": 0,
        "tle_line1": "1 66645U 25272A   25337.36113141  .00026743  00000+0  34172-3 0  9996",
        "tle_line2": "2 66645  41.4677  73.6192 0010070 319.5464  40.4624 15.58580261262579"
      },
      "geometry": {
        "type": "Point",
        "coordinates": [
          -127.64499116685805,
          14.021909917475652
        ]
      }
    },
    {
      "type": "Feature",
      "properties": {
        "norad_id": 66646,
        "name": "CZ-2F R/B",
        "group": "stations",
        "lat": -20.28078064288578,
        "lon": -90.35656903961133,
        "alt_km": 187.84314997038655,
        "timestamp": "2025-12-04T03:47:53.355614+00:00",
        "meta_object_name": "CZ-2F R/B",
        "meta_object_id": "2025-272B",
        "meta_epoch": "2025-11-26T11:17:54.506400",
        "meta_mean_motion": 16.01945612,
        "meta_eccentricity": 0.01210796,
        "meta_inclination": 41.4431,
        "meta_ra_of_asc_node": 114.9009,
        "meta_arg_of_pericenter": 133.7676,
        "meta_mean_anomaly": 227.3272,
        "meta_ephemeris_type": 0,
        "meta_classification_type": "U",
        "meta_norad_cat_id": 66646,
        "meta_element_set_no": 999,
        "meta_rev_at_epoch": 21,
        "meta_bstar": 0.00029319366,
        "meta_mean_motion_dot": 0.00449059,
        "meta_mean_motion_ddot": 7.567612e-06,
        "tle_line1": "1 66646U 25272B   25330.47076975  .00449059  75676-5  29319-3 0  9998",
        "tle_line2": "2 66646  41.4431 114.9009 0121079 133.7676 227.3272 16.01945612   217"
      },
      "geometry": {
        "type": "Point",
        "coordinates": [
          -90.35656903961133,
          -20.28078064288578
        ]
      }
    },
    {
      "type": "Feature",
      "properties": {
        "norad_id": 66664,
        "name": "SOYUZ-MS 28",
        "group": "stations",
        "lat": 8.171511115458786,
        "lon": -168.5040917794681,
        "alt_km": 420.8299740170787,
        "timestamp": "2025-12-04T03:47:53.355624+00:00",
        "meta_object_name": "SOYUZ-MS 28",
        "meta_object_id": "2025-275A",
        "meta_epoch": "2025-12-03T10:43:27.497856",
        "meta_mean_motion": 15.49271748,
        "meta_eccentricity": 0.0003633,
        "meta_inclination": 51.6306,
        "meta_ra_of_asc_node": 188.4862,
        "meta_arg_of_pericenter": 200.0092,
        "meta_mean_anomaly": 160.0755,
        "meta_ephemeris_type": 0,
        "meta_classification_type": "U",
        "meta_norad_cat_id": 66664,
        "meta_element_set_no": 999,
        "meta_rev_at_epoch": 100,
        "meta_bstar": 0.00021633,
        "meta_mean_motion_dot": 0.000116,
        "meta_mean_motion_ddot": 0,
        "tle_line1": "1 66664U 25275A   25337.44684604  .00011600  00000+0  21633-3 0  9990",
        "tle_line2": "2 66664  51.6306 188.4862 0003633 200.0092 160.0755 15.49271748  1009"
      },
      "geometry": {
        "type": "Point",
        "coordinates": [
          -168.5040917794681,
          8.171511115458786
        ]
      }
    }
  ]
}